QUANTUTONG 1            
1 43158U 18008D   22010.42526439  .00001782  00000+0  10653-3 0  9993
2 43158  97.3760  72.0700 0012723 339.6487  31.0163 15.12248580219211
S-NET D                 
1 43186U 18014G   22009.74071138  .00000716  00000+0  66606-4 0  9991
2 43186  97.6680 278.4870 0012248 108.7887 251.4664 14.97313903215165
S-NET B                 
1 43187U 18014H   22009.74071589  .00000721  00000+0  67092-4 0  9998
2 43187  97.6677 278.4456 0012244 108.6773 251.5779 14.97313160215164
S-NET A                 
1 43188U 18014J   22010.47602412  .00000823  00000+0  75876-4 0  9998
2 43188  97.6682 279.2217 0012312 106.6223 253.6352 14.97313517215277
S-NET C                 
1 43189U 18014K   22010.47656252  .00000846  00000+0  77837-4 0  9994
2 43189  97.6677 279.1582 0012334 106.4944 253.7635 14.97312790213824
FENGMANIU-1 (FMN-1)     
1 43192U 18015A   22010.45112461  .00006537  00000+0  22157-3 0  9993
2 43192  97.5129 152.5651 0012469 227.7863 217.6226 15.30835020219225
SHAONIAN XING           
1 43199U 18015H   22010.45766836  .00004250  00000+0  15123-3 0  9996
2 43199  97.4908 148.8569 0013718 239.0746 191.8554 15.29444542219260
LUOJIA-1 01             
1 43485U 18048B   22010.37469737  .00000296  00000+0  49267-4 0  9994
2 43485  97.9483  94.1333 0011113 357.5909   2.5239 14.77006331194539
SURFSAT                 
1 43614U 18070B   22009.57767803  .00010234  00000+0  21378-3 0  9993
2 43614  93.0211  31.9771 0009907 285.7964  74.2201 15.45452538186463
CP7 (DAVE)              
1 43615U 18070C   22010.03047441  .00009724  00000+0  20611-3 0  9997
2 43615  93.0215  32.0876 0010115 284.0128  76.0005 15.45024167186514
ELFIN-B                 
1 43616U 18070D   22010.06056740  .00015306  00000+0  27173-3 0  9996
2 43616  93.0161  32.6490 0008931 275.1943  84.8298 15.50135189186718
ELFIN-A                 
1 43617U 18070E   22010.06564732  .00016178  00000+0  27902-3 0  9990
2 43617  93.0215  33.7249 0008159 270.4365  89.5961 15.50958432186747
CZ-4B R/B               
1 43656U 18081B   22009.88524864  .00000029  00000+0  26847-4 0  9991
2 43656  99.3767 131.1348 0207787 239.5893 118.4608 14.30501790167684
CUBEBEL-1 (BSUSAT-1)    
1 43666U 18083E   22010.52216497  .00002445  00000+0  11490-3 0  9998
2 43666  97.4377  41.1964 0014566 159.6310 359.1234 15.20465153177460
CHANGSHAGAOXIN (TY 4-01)
1 43669U 18083H   22010.41081552  .00002064  00000+0  10132-3 0  9990
2 43669  97.4305  37.5385 0010759 154.5863 317.4496 15.19162277177294
TEN-KOH                 
1 43677U 18084G   22010.15096160  .00000410  00000+0  47668-4 0  9990
2 43677  97.9426 139.0611 0017294  74.9945 285.3185 14.90656953174099
DIWATA-2B               
1 43678U 18084H   22009.57255699 -.00000059  00000+0 -48041-7 0  9999
2 43678  97.9478 141.2666 0011384  90.1104 270.1436 14.91872076174169
STARS-AO                
1 43679U 18084J   22009.90309224  .00000409  00000+0  45168-4 0  9992
2 43679  97.9509 143.1632 0010418  92.7093 267.5191 14.92816074174289
AUTCUBE 2               
1 43681U 18084K   22010.33062430  .00000527  00000+0  57277-4 0  9994
2 43681  97.9478 142.4651 0010819  88.4920 271.7538 14.92334608174264
IRVINE01                
1 43693U 18088D   22009.86673843  .00009355  00000+0  33265-3 0  9991
2 43693  85.0320  57.4691 0014181 350.5653   9.5324 15.28736553175932
ES'HAIL 2               
1 43700U 18090A   22010.27423993  .00000151  00000+0  00000+0 0  9991
2 43700   0.0142 312.3178 0002191  11.9083 270.0654  1.00275219 11680
FACSAT-1                
1 43721U 18096C   22010.50694352  .00004041  00000+0  13782-3 0  9992
2 43721  97.3677  91.0924 0014432 254.9915 231.2549 15.30837889173775
CENTAURI-2              
1 43722U 18096D   22009.87778536  .00007785  00000+0  24918-3 0  9999
2 43722  97.3716  91.7803 0013923 254.6122 105.3582 15.32584775173744
3CAT-1                  
1 43728U 18096K   22010.50989243  .00005383  00000+0  17177-3 0  9997
2 43728  97.3723  93.0962 0013865 256.3661 229.4999 15.32835906173870
INNOSAT-2               
1 43738U 18096V   22010.50487613  .00008587  00000+0  23557-3 0  9990
2 43738  97.3799  97.6382 0017528 247.3273 239.8233 15.37367314174166
REAKTOR HELLO WORLD     
1 43743U 18096AA  22010.45726137  .00004864  00000+0  16799-3 0  9991
2 43743  97.3691  91.3652 0014909 261.4235  98.5317 15.30314603173774
ELYSIUM STAR 2 & LFF    
1 43760U 18099C   22010.19038936  .00001596  00000+0  14350-3 0  9997
2 43760  97.6495  82.2012 0014575  77.1121 283.1728 14.96991354169433
2018-099D               
1 43761U 18099D   22010.44781582 -.00000105  00000+0 -43172-5 0  9991
2 43761  97.6430  81.2721 0015693  79.4575 280.8447 14.95471212169403
AISTECHSAT 2            
1 43768U 18099L   22010.45473186  .00000799  00000+0  77793-4 0  9999
2 43768  97.6396  79.9559 0012804  79.6191 280.6472 14.95150214169076
FOX-1CLIFF (AO-95)      
1 43770U 18099N   22009.86871498  .00001162  00000+0  10935-3 0  9992
2 43770  97.6431  80.2671 0015968  88.2183 272.0867 14.95657948169305
RANGE-A                 
1 43772U 18099Q   22010.45173010  .00000969  00000+0  91139-4 0  9996
2 43772  97.6525  82.1805 0015166  74.2255 286.0637 14.96063411169404
RANGE-B                 
1 43773U 18099R   22010.16179083  .00000096  00000+0  13788-4 0  9996
2 43773  97.6360  79.6518 0014866  75.1695 285.1172 14.95463311169336
2018-099T               
1 43775U 18099T   22010.15499105  .00000341  00000+0  35824-4 0  9995
2 43775  97.6433  80.7327 0016094  78.9100 281.3930 14.95503950169331
MOVE-II                 
1 43780U 18099Y   22009.73525904  .00001778  00000+0  16137-3 0  9990
2 43780  97.6458  80.9468 0014757  85.4543 274.8364 14.96464930169311
SNUSAT-2                
1 43782U 18099AA  22009.73575163  .00001196  00000+0  11183-3 0  9994
2 43782  97.6431  80.5499 0014102  76.0645 284.2144 14.95875090169309
SNUGLITE                
1 43784U 18099AC  22009.85909794  .00000928  00000+0  87578-4 0  9994
2 43784  97.6391  80.3446 0016320  82.1358 278.1716 14.96023873169345
ITASAT 1                
1 43786U 18099AE  22010.41885603  .00000883  00000+0  83793-4 0  9997
2 43786  97.6456  81.6249 0016652  79.5751 280.7346 14.95911609169428
KAZSCISAT-1             
1 43787U 18099AF  22010.12910419  .00001405  00000+0  12812-3 0  9994
2 43787  97.6366  80.4810 0015338  77.7016 282.5922 14.96591300169416
EAGLET-I                
1 43790U 18099AJ  22010.13954318  .00001025  00000+0  95725-4 0  9998
2 43790  97.6444  81.8428 0014941  84.2812 276.0113 14.96215363169112
ESEO                    
1 43792U 18099AL  22009.76082018  .00000002  00000+0  52152-5 0  9998
2 43792  97.6407  80.8830 0014791  82.0182 278.2718 14.95884473169105
CSIM-FD                 
1 43793U 18099AM  22010.44755438  .00001064  00000+0  96946-4 0  9996
2 43793  97.6453  82.3675 0013804  76.0083 284.2672 14.97132330169238
ASTROCAST 0.1           
1 43798U 18099AS  22009.78541210  .00001155  00000+0  10635-3 0  9998
2 43798  97.6449  81.7954 0013310  65.8401 294.4211 14.96569554169371
JY1SAT (JO-97)          
1 43803U 18099AX  22009.74269365  .00001373  00000+0  12648-3 0  9997
2 43803  97.6417  80.7017 0016582  81.5698 278.7403 14.96227363169332
SUOMI-100               
1 43804U 18099AY  22010.15447199  .00000716  00000+0  68412-4 0  9999
2 43804  97.6413  81.0505 0016632  79.9607 280.3490 14.96181436169405
AL-FARABI 2             
1 43805U 18099AZ  22010.52095881  .00000705  00000+0  66949-4 0  9999
2 43805  97.6421  81.7515 0016212  78.6534 281.6536 14.96493635169471
CENTAURI-1              
1 43809U 18099BD  22009.76932343  .00000128  00000+0  16411-4 0  9998
2 43809  97.6425  81.0024 0016504  81.8964 278.4129 14.96101074169042
CHOMPTT                 
1 43855U 18104G   22009.96566835  .00003269  00000+0  12857-3 0  9995
2 43855  85.0376 156.5697 0018527 102.4351 257.8967 15.25066130170555
DAVINCI                 
1 43857U 18104J   22010.11288130  .00010989  00000+0  39201-3 0  9994
2 43857  85.0315 155.6341 0014363 122.5836 237.6798 15.28641542170615
UWE-4                   
1 43880U 18111E   22009.72041783  .00000370  00000+0  36860-4 0  9996
2 43880  97.6784 278.8206 0012931 128.0354 232.2037 14.97253080165941
ZACUBE-2                
1 43907U 18111AH  22010.48502462  .00001498  00000+0  60957-4 0  9993
2 43907  97.2102 262.4233 0018942 282.1638 203.7553 15.25877690169193
MICRODRAGON             
1 43935U 19003D   22010.07159270  .00001666  00000+0  71168-4 0  9998
2 43935  97.1572  47.3876 0018129  21.5582 338.6415 15.24064085165564
AOBA VELOX-IV           
1 43940U 19003J   22010.32930695  .00008565  00000+0  29708-3 0  9997
2 43940  97.1533  51.6212 0020836 357.7620   2.3524 15.29828057165900
M6P                     
1 44109U 19018AF  22010.49459543  .00005838  00000+0  16733-3 0  9991
2 44109  97.4106  93.5499 0052167 335.8341  24.0455 15.34929559155197
FORMOSAT 7-4            
1 44350U 19036M   22009.44421343  .00001779  00000+0  90383-4 0  9993
2 44350  24.0009  36.2524 0005752 349.0819  10.9559 15.08260380139429
PAINANI 1               
1 44365U 19037A   22010.47539742  .00012922  00000+0  27709-3 0  9991
2 44365  45.0019 181.4954 0005668 309.3525  50.6862 15.44774142142741
ACRUX 1                 
1 44369U 19037E   22009.76065723  .00029566  00000+0  43236-3 0  9993
2 44369  45.0023 149.3079 0012404 320.9934  39.0064 15.55051445143012
METEOR-M2 2             
1 44387U 19038A   22010.51598418 -.00000041  00000+0  14892-5 0  9997
2 44387  98.7010 332.7565 0002060  44.5588 315.5749 14.23696405130936
VDNH-80                 
1 44392U 19038G   22010.52708304  .00002188  00000+0  12134-3 0  9999
2 44392  97.6159 339.7901 0019708 322.8046 132.3342 15.14705314138925
D-STAR ONE (LIGHTSAT)   
1 44393U 19038H   22009.85856615  .00003234  00000+0  17792-3 0  9991
2 44393  97.6166 338.9875 0019890 325.2523  34.7408 15.14637224139017
